0 METEOR 1-16
1 07209U 74011A   13283.07619332  .00000178  00000-0  87462-4 0  1505
2 07209 081.2266 257.2502 0037915 272.9026 137.3052 14.13612475 40741
0 METEOR 1-16
1 07209U 74011A   13286.12663273  .00000158  00000-0  76744-4 0  1528
2 07209 081.2271 254.2570 0037868 263.9220 181.3107 14.13613206 41173
0 METEOR 1-16
1 07209U 74011A   13287.48155201  .00000140  00000-0  67518-4 0  1536
2 07209 081.2276 252.9275 0037899 259.9833 236.5880 14.13613954 41366
0 METEOR 1-16
1 07209U 74011A   13289.02509832  .00000129  00000-0  61299-4 0  1549
2 07209 081.2280 251.4131 0037950 255.5212 171.7812 14.13615064 41580
0 METEOR 1-16
1 07209U 74011A   13290.08345929  .00000113  00000-0  52889-4 0  1551
2 07209 081.2282 250.3747 0038005 252.4658 157.8386 14.13615470 41734
0 METEOR 1-16
1 07209U 74011A   13291.44591301  .00000102  00000-0  47045-4 0  1566
2 07209 081.2284 249.0382 0038067 248.5646 251.4105 14.13615881 41924
0 METEOR 1-16
1 07209U 74011A   13292.50740188  .00000097  00000-0  44789-4 0  1579
2 07209 081.2284 247.9971 0038120 245.5195 253.3701 14.13616044 42073
0 METEOR 1-16
1 07209U 74011A   13293.83686479  .00000098  00000-0  45421-4 0  1584
2 07209 081.2284 246.6931 0038200 241.6980 179.0689 14.13616227 42266
0 METEOR 1-16
1 07209U 74011A   13294.96982859  .00000086  00000-0  38806-4 0  1597
2 07209 081.2285 245.5819 0038280 238.4499 184.7669 14.13616517 42428
0 METEOR 1-16
1 07209U 74011A   13296.02840346  .00000074  00000-0  32667-4 0  1608
2 07209 081.2285 244.5436 0038355 235.3972 171.9152 14.13616798 42579
